#cP2022 11  5  0  0  0.00000000      96 ORBIT IGb14 HLM  IGS
## 2234 518400.00000000   900.00000000 59888 0.0000000000000
+   31   G01G02G03G04G05G06G07G08G09G10G11G12G13G14G15G16G17
+        G18G19G20G21G22G23G24G25G26G27G29G30G31G32  0  0  0
+          0  0  0  0  0  0  0  0  0  0  0  0  0  0  0  0  0
+          0  0  0  0  0  0  0  0  0  0  0  0  0  0  0  0  0
+          0  0  0  0  0  0  0  0  0  0  0  0  0  0  0  0  0
++         2  2  2  3  2  2  2  2  2  2  3  2  2  3  2  2  2
++         3  2  2  2  2  3  2  2  2  2  2  2  2  2  0  0  0
++         0  0  0  0  0  0  0  0  0  0  0  0  0  0  0  0  0
++         0  0  0  0  0  0  0  0  0  0  0  0  0  0  0  0  0
++         0  0  0  0  0  0  0  0  0  0  0  0  0  0  0  0  0
%c G  cc GPS ccc cccc cccc cccc cccc ccccc ccccc ccccc ccccc
%c cc cc ccc ccc cccc cccc cccc cccc ccccc ccccc ccccc ccccc
%f  1.2500000  1.025000000  0.00000000000  0.000000000000000
%f  0.0000000  0.000000000  0.00000000000  0.000000000000000
%i    0    0    0    0      0      0      0      0         0
%i    0    0    0    0      0      0      0      0         0
/* RAPID ORBIT COMBINATION FROM WEIGHTED AVERAGE OF:        
/* cod emr esa gfz jpl ngs sio usn whu                      
/* REFERENCED TO IGS TIME (IGST) AND TO WEIGHTED MEAN POLE: 
/* PCV:IGS14_2233 OL/AL:FES2004  NONE     Y  ORB:CMB CLK:CMB
*  2022 11  5 21 45  0.00000000
PG01 -17726.602614 -13710.902598 -14828.374110    256.208869  5  8  6  94       
PG02  19356.756249  12032.279802  14148.700480   -639.193054  5  7  5  77       
PG03 -12144.587708 -22880.711621   5998.256966   -370.873620  7  5 10 117       
PG04  -8697.459289 -12768.725581  21597.677901    -91.508011  7  9  8  71       
PG05   5366.337611  25185.401073   6066.896679   -103.182782  8  5  6  90       
PG06 -19004.203595   7592.587791  17035.962529    510.842626  6  8  2 100       
PG07 -26009.622844  -6448.803668   1732.439685    290.863333 10  4  5  68       
PG08    331.481862 -19708.943130 -17663.853924    -92.391107  5  5  6 121       
PG09 -17277.272135  -1464.852057  20051.651104   -272.976900  3  4  6  75       
PG10  13920.539098  -5070.163148 -21885.923922    -10.649931  5  5  6 110       
PG11  -7457.329766  13560.844942  21586.891041    -35.365936  7 11  7  88       
PG12  10179.382702  23945.402131   5333.530072   -300.802320  6  6  6 120       
PG13  -9465.500652  20726.298659 -13665.010973    419.321872  5  3  7 107       
PG14 -15254.520583   2742.738592 -21565.919095    -86.803027 11  6  7  91       
PG15   2685.808242  19883.744797 -17709.526776    -14.872381  7  5  5 109       
PG16   1521.449701 -23993.199633  10479.815961   -526.853272  7  6  7 110       
PG17 -21316.485788  10787.728942 -11236.479480    675.334855  7  5  5  88       
PG18  26136.594003   5092.475738   -775.220261    -11.292657 10  8 10  98       
PG19 -20138.865948  17030.709696  -1759.995301    233.461182  5  4  6  89       
PG20  -3284.540180  20092.295651  17190.381774    472.490616  6  5  5  92       
PG21 -10533.878413 -14619.233652 -19152.697468    156.651491  7  7  7 111       
PG22  18103.200158 -19259.377919   1706.876374    359.092096  7  6  7  93       
PG23  16782.643318   6715.114738 -19513.642794     -1.137087 11  6  8 124       
PG24  14527.955604  14525.522602 -17387.153141     71.108826  7  4  5 121       
PG25  16046.548970  15909.424646  13880.852612    389.707987  7  6  5 112       
PG26   7717.844713 -17116.615812  18565.724849    234.887066  2  5  5  96       
PG27  10769.059087 -22239.641163  -9396.747731    184.313547  6  5  5 123       
PG29  15817.099967   4148.708363  20904.913320   -565.088114  9  6  3 108       
PG30 -24688.617511   2206.426722  -9793.433893   -536.940603  5  7  6  80       
PG31  18457.048048  -8422.824068  17222.783409   -199.235869  5  4  5  97       
PG32  20466.657533 -13869.301225  -9283.020375   -286.627292  5  7  6 101       
*  2022 11  5 22  0  0.00000000
PG01 -15991.775958 -13499.467561 -16866.480554    256.203663  5  7  6  92       
PG02  17707.122799  12064.661002  16238.834161   -639.191198  6  6  5  76       
PG03 -12147.915332 -23453.887918   3182.404760   -370.875904  7  5 10 121       
PG04  -7051.435088 -14571.221361  21040.793989    -91.502087  7  9  9  89       
PG05   4794.903784  24482.085149   8761.670735   -103.184388  8  4  6  90       
PG06 -20775.579621   7176.453700  15028.468948    510.851339  6  8  4  92       
PG07 -25667.717390  -6635.513252   4510.954666    290.859206  9  5  6  94       
PG08   1653.384096 -21116.929205 -15832.723166    -92.392105  5  5  6 118       
PG09 -15889.652230  -3379.062854  20940.735375   -272.971849  4  4  6  65       
PG10  14824.569220  -2713.018043 -21739.475511    -10.651512  6  5  7 110       
PG11  -9824.579275  12993.727357  20976.080426    -35.370870  8 10  6 103       
PG12  10099.680572  24468.327160   2517.121937   -300.806242  7  6  6 120       
PG13 -10631.029535  21541.460907 -11297.228292    419.328193  5  3  7 110       
PG14 -16013.832391    412.735368 -21192.920467    -86.798722 11  6  7 106       
PG15   1524.446140  21365.644443 -15967.948926    -14.869756  8  5  6 116       
PG16   2126.886471 -22717.219582  12916.295492   -526.853626  7  6  7 108       
PG17 -20443.433038   9578.235153 -13605.448052    675.337690  7  5  6  99       
PG18  26025.178107   5285.107121   2095.112991    -11.305070 11  8 10 102       
PG19 -20056.790448  16627.526762  -4629.514239    233.465402  5  4  5  92       
PG20  -4445.950782  18396.336186  18738.079244    472.487414  6  6  4 103       
PG21  -8177.961752 -14514.634216 -20247.335320    156.650231  6  7  7 105       
PG22  18285.941125 -19063.889059  -1160.913837    359.098359  8  6  7 102       
PG23  17499.674992   8734.936942 -18039.522391     -1.136990 11  6  7 117       
PG24  12512.769852  14519.369989 -18884.699079     71.094739  7  4  5 120       
PG25  16395.690164  17375.553071  11598.944024    389.711400  7  6  5 116       
PG26   8780.780966 -15150.205175  19786.579636    234.888157  2  5  5 106       
PG27  11523.274493 -22791.103663  -6702.818694    184.306432  5  5  5 117       
PG29  14174.361631   5948.386373  21627.499361   -565.090629  9  6  2 113       
PG30 -25607.518564   1759.499120  -7233.614450   -536.940320  6  7  6  81       
PG31  20273.151629  -7926.556991  15372.577724   -199.236934  5  5  5  96       
PG32  19888.531775 -12753.945611 -11782.370916   -286.638438  5  7  6  96       
*  2022 11  5 22 15  0.00000000
PG01 -14037.075882 -13364.152897 -18624.500198    256.198426  5  7  6 106       
PG02  15849.078224  12179.054612  18059.524704   -639.189578  6  5  6  90       
PG03 -12051.138598 -23731.934396    312.034595   -370.878206  7  5 10 123       
PG04  -5552.211473 -16391.716913  20121.338278    -91.496172  7  9  9  84       
PG05   4052.411415  23542.859034  11303.594982   -103.185153  8  4  6 101       
PG06 -22327.416959   6886.875595  12764.273587    510.860050  6  8  4  98       
PG07 -25033.468610  -6804.777778   7214.694726    290.855041  9  5  6  91       
PG08   2776.139439 -22407.808109 -13725.572531    -92.393342  5  5  6 127       
PG09 -14555.360096  -5428.108186  21467.165143   -272.966844  4  5  6  77       
PG10  15837.773058   -446.214125 -21214.387970    -10.652726  6  4  7 111       
PG11 -12130.206686  12565.730577  20004.269273    -35.375787  9 10  5 100       
PG12   9939.029655  24692.085551   -342.490996   -300.810498  7  6  6 123       
PG13 -11560.934640  22215.220274  -8734.718480    419.334218  5  2  7 111       
PG14 -16866.002158  -1816.695433 -20455.496544    -86.794467 11  6  8  96       
PG15    530.240661  22719.399789 -13956.396886    -14.866618  8  5  6 113       
PG16   2885.526142 -21221.728416  15121.711470   -526.853393  7  6  7 102       
PG17 -19473.293837   8119.996367 -15734.845252    675.340715  7  6  6 109       
PG18  25604.379640   5445.180079   4929.703210    -11.317528 11  8 10 110       
PG19 -19780.375294  15982.529443  -7418.480891    233.469833  4  5  5 114       
PG20  -5778.118985  16629.044398  19965.950859    472.484614  5  6  4 117       
PG21  -5705.017998 -14529.946744 -20979.868187    156.650333  6  6  7 107       
PG22  18269.430165 -18628.399912  -4008.410666    359.104698  8  7  6 100       
PG23  18243.912290  10546.609042 -16256.619280     -1.136837 11  5  6 119       
PG24  10349.598285  14609.681321 -20069.660772     71.080706  7  4  5 118       
PG25  16707.823253  18573.479384   9117.308300    389.714679  7  5  5 120       
PG26   9989.661036 -13133.153697  20661.622336    234.889291  3  5  6 113       
PG27  12066.658598 -23126.136694  -3891.493872    184.299232  5  4  5 132       
PG29  12593.108400   7882.759479  21976.841881   -565.093119  9  5  3 118       
PG30 -26254.077865   1393.062207  -4550.778246   -536.940042  6  8  7  80       
PG31  21887.707438  -7554.619050  13260.415070   -199.238156  6  6  6 104       
PG32  19210.199481 -11387.138566 -14075.270715   -286.649573  5  6  7 105       
EOF
